[{"OBJECT_NAME":"STARLINK-31597","OBJECT_ID":"2024-068K","EPOCH":"2026-03-09T07:19:40.723680","MEAN_MOTION":15.27578443,"ECCENTRICITY":0.00011514,"INCLINATION":43.0054,"RA_OF_ASC_NODE":36.711,"ARG_OF_PERICENTER":266.8565,"MEAN_ANOMALY":93.2155,"EPHEMERIS_TYPE":0,"CLASSIFICATION_TYPE":"U","NORAD_CAT_ID":59464,"ELEMENT_SET_NO":999,"REV_AT_EPOCH":10841,"BSTAR":-4.08084e-7,"MEAN_MOTION_DOT":-2.73e-6,"MEAN_MOTION_DDOT":0},{"OBJECT_NAME":"CZ-6A DEB","OBJECT_ID":"2022-151NB","EPOCH":"2026-03-09T18:26:17.609568","MEAN_MOTION":15.22372787,"ECCENTRICITY":0.00267955,"INCLINATION":98.6489,"RA_OF_ASC_NODE":154.0342,"ARG_OF_PERICENTER":180.4296,"MEAN_ANOMALY":179.6918,"EPHEMERIS_TYPE":0,"CLASSIFICATION_TYPE":"U","NORAD_CAT_ID":54601,"ELEMENT_SET_NO":999,"REV_AT_EPOCH":17694,"BSTAR":0.011449911,"MEAN_MOTION_DOT":0.00276508,"MEAN_MOTION_DDOT":0}]
